{
  "type": "FeatureCollection",
  "features": [
    {
      "type": "Feature",
      "properties": {
        "norad_id": 15362,
        "name": "NOVA 3",
        "group": "nnss",
        "lat": -60.47162806734984,
        "lon": -99.612020456192,
        "alt_km": 1174.2768545836361,
        "timestamp": "2025-12-18T14:52:08.294403+00:00",
        "meta_object_name": "NOVA 3",
        "meta_object_id": "1984-110A",
        "meta_epoch": "2025-12-18T06:39:53.604864",
        "meta_mean_motion": 13.23045141,
        "meta_eccentricity": 0.0030113,
        "meta_inclination": 90.1223,
        "meta_ra_of_asc_node": 80.6,
        "meta_arg_of_pericenter": 316.0772,
        "meta_mean_anomaly": 97.4539,
        "meta_ephemeris_type": 0,
        "meta_classification_type": "U",
        "meta_norad_cat_id": 15362,
        "meta_element_set_no": 999,
        "meta_rev_at_epoch": 98772,
        "meta_bstar": 0.00013552245,
        "meta_mean_motion_dot": 6.5e-07,
        "meta_mean_motion_ddot": 0,
        "tle_line1": "1 15362U 84110A   25352.27770376  .00000065  00000+0  13552-3 0  9996",
        "tle_line2": "2 15362  90.1223  80.6000 0030113 316.0772  97.4539 13.23045141987728"
      },
      "geometry": {
        "type": "Point",
        "coordinates": [
          -99.612020456192,
          -60.47162806734984
        ]
      }
    },
    {
      "type": "Feature",
      "properties": {
        "norad_id": 15935,
        "name": "OSCAR 30",
        "group": "nnss",
        "lat": -57.43668652845628,
        "lon": -80.31617353748751,
        "alt_km": 1256.0602080814424,
        "timestamp": "2025-12-18T14:52:08.294414+00:00",
        "meta_object_name": "OSCAR 30",
        "meta_object_id": "1985-066A",
        "meta_epoch": "2025-12-18T06:38:35.725632",
        "meta_mean_motion": 13.36079169,
        "meta_eccentricity": 0.01692813,
        "meta_inclination": 90.1656,
        "meta_ra_of_asc_node": 99.9377,
        "meta_arg_of_pericenter": 68.4544,
        "meta_mean_anomaly": 321.0083,
        "meta_ephemeris_type": 0,
        "meta_classification_type": "U",
        "meta_norad_cat_id": 15935,
        "meta_element_set_no": 999,
        "meta_rev_at_epoch": 96527,
        "meta_bstar": 0.00011771472,
        "meta_mean_motion_dot": 7.5e-07,
        "meta_mean_motion_ddot": 0,
        "tle_line1": "1 15935U 85066A   25352.27680238  .00000075  00000+0  11771-3 0  9992",
        "tle_line2": "2 15935  90.1656  99.9377 0169281  68.4544 321.0083 13.36079169965275"
      },
      "geometry": {
        "type": "Point",
        "coordinates": [
          -80.31617353748751,
          -57.43668652845628
        ]
      }
    },
    {
      "type": "Feature",
      "properties": {
        "norad_id": 15936,
        "name": "OSCAR 24",
        "group": "nnss",
        "lat": -52.31016001145365,
        "lon": 92.64127178774321,
        "alt_km": 1205.4811119784763,
        "timestamp": "2025-12-18T14:52:08.294424+00:00",
        "meta_object_name": "OSCAR 24",
        "meta_object_id": "1985-066B",
        "meta_epoch": "2025-12-18T06:23:57.109344",
        "meta_mean_motion": 13.35936527,
        "meta_eccentricity": 0.01703923,
        "meta_inclination": 90.1791,
        "meta_ra_of_asc_node": 92.4031,
        "meta_arg_of_pericenter": 74.917,
        "meta_mean_anomaly": 338.1699,
        "meta_ephemeris_type": 0,
        "meta_classification_type": "U",
        "meta_norad_cat_id": 15936,
        "meta_element_set_no": 999,
        "meta_rev_at_epoch": 96717,
        "meta_bstar": 9.4699805e-05,
        "meta_mean_motion_dot": 6.3e-07,
        "meta_mean_motion_ddot": 0,
        "tle_line1": "1 15936U 85066B   25352.26663321  .00000063  00000+0  94700-4 0  9997",
        "tle_line2": "2 15936  90.1791  92.4031 0170392  74.9170 338.1699 13.35936527967175"
      },
      "geometry": {
        "type": "Point",
        "coordinates": [
          92.64127178774321,
          -52.31016001145365
        ]
      }
    },
    {
      "type": "Feature",
      "properties": {
        "norad_id": 17070,
        "name": "POLAR BEAR",
        "group": "nnss",
        "lat": -76.66209864110238,
        "lon": 5.15452330674108,
        "alt_km": 1015.5579188452493,
        "timestamp": "2025-12-18T14:52:08.294435+00:00",
        "meta_object_name": "POLAR BEAR",
        "meta_object_id": "1986-088A",
        "meta_epoch": "2025-12-18T07:28:44.043168",
        "meta_mean_motion": 13.7525194,
        "meta_eccentricity": 0.00412261,
        "meta_inclination": 89.6171,
        "meta_ra_of_asc_node": 183.5507,
        "meta_arg_of_pericenter": 103.1841,
        "meta_mean_anomaly": 69.6971,
        "meta_ephemeris_type": 0,
        "meta_classification_type": "U",
        "meta_norad_cat_id": 17070,
        "meta_element_set_no": 999,
        "meta_rev_at_epoch": 96055,
        "meta_bstar": 0.00010886213,
        "meta_mean_motion_dot": 1.17e-06,
        "meta_mean_motion_ddot": 0,
        "tle_line1": "1 17070U 86088A   25352.31162087  .00000117  00000+0  10886-3 0  9994",
        "tle_line2": "2 17070  89.6171 183.5507 0041226 103.1841  69.6971 13.75251940960551"
      },
      "geometry": {
        "type": "Point",
        "coordinates": [
          5.15452330674108,
          -76.66209864110238
        ]
      }
    },
    {
      "type": "Feature",
      "properties": {
        "norad_id": 18361,
        "name": "OSCAR 27",
        "group": "nnss",
        "lat": -53.06463032945211,
        "lon": -101.00572701997014,
        "alt_km": 1028.6444922424853,
        "timestamp": "2025-12-18T14:52:08.294446+00:00",
        "meta_object_name": "OSCAR 27",
        "meta_object_id": "1987-080A",
        "meta_epoch": "2025-12-18T06:34:17.331744",
        "meta_mean_motion": 13.44907819,
        "meta_eccentricity": 0.01033512,
        "meta_inclination": 90.3742,
        "meta_ra_of_asc_node": 79.4794,
        "meta_arg_of_pericenter": 207.8234,
        "meta_mean_anomaly": 151.7363,
        "meta_ephemeris_type": 0,
        "meta_classification_type": "U",
        "meta_norad_cat_id": 18361,
        "meta_element_set_no": 999,
        "meta_rev_at_epoch": 87631,
        "meta_bstar": 0.00014486726,
        "meta_mean_motion_dot": 9.6e-07,
        "meta_mean_motion_ddot": 0,
        "tle_line1": "1 18361U 87080A   25352.27381171  .00000096  00000+0  14487-3 0  9990",
        "tle_line2": "2 18361  90.3742  79.4794 0103351 207.8234 151.7363 13.44907819876312"
      },
      "geometry": {
        "type": "Point",
        "coordinates": [
          -101.00572701997014,
          -53.06463032945211
        ]
      }
    },
    {
      "type": "Feature",
      "properties": {
        "norad_id": 18362,
        "name": "OSCAR 29",
        "group": "nnss",
        "lat": -55.150352814853136,
        "lon": -100.58772897132346,
        "alt_km": 1022.2498471327863,
        "timestamp": "2025-12-18T14:52:08.294460+00:00",
        "meta_object_name": "OSCAR 29",
        "meta_object_id": "1987-080B",
        "meta_epoch": "2025-12-18T06:52:01.766784",
        "meta_mean_motion": 13.44449396,
        "meta_eccentricity": 0.01042411,
        "meta_inclination": 90.3753,
        "meta_ra_of_asc_node": 79.9391,
        "meta_arg_of_pericenter": 231.0702,
        "meta_mean_anomaly": 191.1576,
        "meta_ephemeris_type": 0,
        "meta_classification_type": "U",
        "meta_norad_cat_id": 18362,
        "meta_element_set_no": 999,
        "meta_rev_at_epoch": 87584,
        "meta_bstar": 0.00012990746,
        "meta_mean_motion_dot": 8.6e-07,
        "meta_mean_motion_ddot": 0,
        "tle_line1": "1 18362U 87080B   25352.28613156  .00000086  00000+0  12991-3 0  9990",
        "tle_line2": "2 18362  90.3753  79.9391 0104241 231.0702 191.1576 13.44449396875843"
      },
      "geometry": {
        "type": "Point",
        "coordinates": [
          -100.58772897132346,
          -55.150352814853136
        ]
      }
    },
    {
      "type": "Feature",
      "properties": {
        "norad_id": 19070,
        "name": "OSCAR 23",
        "group": "nnss",
        "lat": 16.82354748632688,
        "lon": 16.47789400702635,
        "alt_km": 1274.3913762984303,
        "timestamp": "2025-12-18T14:52:08.294471+00:00",
        "meta_object_name": "OSCAR 23",
        "meta_object_id": "1988-033A",
        "meta_epoch": "2025-12-18T07:36:15.262848",
        "meta_mean_motion": 13.27788111,
        "meta_eccentricity": 0.01899926,
        "meta_inclination": 90.3207,
        "meta_ra_of_asc_node": 16.5655,
        "meta_arg_of_pericenter": 164.4315,
        "meta_mean_anomaly": 207.6469,
        "meta_ephemeris_type": 0,
        "meta_classification_type": "U",
        "meta_norad_cat_id": 19070,
        "meta_element_set_no": 999,
        "meta_rev_at_epoch": 82327,
        "meta_bstar": 0.00020178652,
        "meta_mean_motion_dot": 1.09e-06,
        "meta_mean_motion_ddot": 0,
        "tle_line1": "1 19070U 88033A   25352.31684332  .00000109  00000+0  20179-3 0  9997",
        "tle_line2": "2 19070  90.3207  16.5655 0189992 164.4315 207.6469 13.27788111823275"
      },
      "geometry": {
        "type": "Point",
        "coordinates": [
          16.47789400702635,
          16.82354748632688
        ]
      }
    }
  ]
}